ONEWEB-0350             
1 49214U 21083AE  25238.61812074  .00000307  00000+0  80449-3 0  9990
2 49214  87.9011  18.7361 0001714 107.7032 252.4284 13.13469918192269
ONEWEB-0351             
1 49215U 21083AF  25238.56527027 -.00000025  00000+0 -92903-4 0  9994
2 49215  87.9304 333.1525 0001044  85.9866 274.1387 13.20770202197886
ONEWEB-0352             
1 49216U 21083AG  25238.14158193  .00000276  00000+0  71972-3 0  9991
2 49216  87.8998  18.8692 0001351  89.0859 271.0425 13.13469557192294
ONEWEB-0354             
1 49217U 21083AH  25238.51490597  .00000084  00000+0  17475-3 0  9995
2 49217  87.9301 333.1613 0001931 108.8257 251.3086 13.20773076197916
ONEWEB-0355             
1 49218U 21083AJ  25238.62755250  .00000139  00000+0  34580-3 0  9995
2 49218  87.9015  18.7754 0001568 100.6888 259.4417 13.13467477192231
ONEWEB-0357             
1 49219U 21083AK  25238.51174837  .00000127  00000+0  28010-3 0  9998
2 49219  87.9292 333.1639 0001731 100.8305 259.3023 13.20773037197915
ONEWEB-0332             
1 49279U 21090A   25238.56668438 -.00000162  00000+0 -47129-3 0  9995
2 49279  87.9092 348.3643 0001762  91.6442 268.4890 13.14502171188875
ONEWEB-0347             
1 49280U 21090B   25238.27500271  .00000165  00000+0  37381-3 0  9995
2 49280  87.9300 333.2229 0002042  90.2283 269.9084 13.20773821192114
